NOAA 15                 
1 25338U 98030A   22229.52808673  .00000134  00000+0  74277-4 0  9995
2 25338  98.6413 258.2558 0011472 117.2157 243.0194 14.26162005261973
NOAA 18                 
1 28654U 05018A   22229.53902056  .00000151  00000+0  10544-3 0  9999
2 28654  98.9457 299.9177 0014844 155.4382 204.7500 14.12765242888693
NOAA 19                 
1 33591U 09005A   22229.47638893  .00000130  00000+0  95242-4 0  9999
2 33591  99.1444 264.8838 0014170  21.0226 339.1524 14.12599502697062
METOP-B                 
1 38771U 12049A   22229.52138896  .00000053  00000+0  44074-4 0  9991
2 38771  98.6914 288.3576 0000720 134.2961 333.2154 14.21501806514402
SARAL                   
1 39086U 13009A   22228.82738449  .00000046  00000+0  33340-4 0  9996
2 39086  98.5490  53.5713 0002330  89.9961 270.1490 14.32056984495123
METOP-C                 
1 43689U 18087A   22229.53735844  .00000056  00000+0  45286-4 0  9999
2 43689  98.6796 288.5171 0002199 198.7605 161.3492 14.21501809195985
ANGELS                  
1 44876U 19092D   22229.43757302  .00002277  00000+0  11460-3 0  9990
2 44876  97.4765  52.0730 0012947 140.0459 220.1730 15.18166901147490
