[{"OBJECT_NAME":"NOAA 15","OBJECT_ID":"1998-030A","EPOCH":"2022-08-17T12:40:26.693472","MEAN_MOTION":14.26162005,"ECCENTRICITY":0.0011472,"INCLINATION":98.6413,"RA_OF_ASC_NODE":258.2558,"ARG_OF_PERICENTER":117.2157,"MEAN_ANOMALY":243.0194,"EPHEMERIS_TYPE":0,"CLASSIFICATION_TYPE":"U","NORAD_CAT_ID":25338,"ELEMENT_SET_NO":999,"REV_AT_EPOCH":26197,"BSTAR":7.4277e-5,"MEAN_MOTION_DOT":1.34e-6,"MEAN_MOTION_DDOT":0},{"OBJECT_NAME":"NOAA 18","OBJECT_ID":"2005-018A","EPOCH":"2022-08-17T12:56:11.376384","MEAN_MOTION":14.12765242,"ECCENTRICITY":0.0014844,"INCLINATION":98.9457,"RA_OF_ASC_NODE":299.9177,"ARG_OF_PERICENTER":155.4382,"MEAN_ANOMALY":204.75,"EPHEMERIS_TYPE":0,"CLASSIFICATION_TYPE":"U","NORAD_CAT_ID":28654,"ELEMENT_SET_NO":999,"REV_AT_EPOCH":88869,"BSTAR":0.00010544,"MEAN_MOTION_DOT":1.51e-6,"MEAN_MOTION_DDOT":0},{"OBJECT_NAME":"NOAA 19","OBJECT_ID":"2009-005A","EPOCH":"2022-08-17T11:26:00.003552","MEAN_MOTION":14.12599502,"ECCENTRICITY":0.001417,"INCLINATION":99.1444,"RA_OF_ASC_NODE":264.8838,"ARG_OF_PERICENTER":21.0226,"MEAN_ANOMALY":339.1524,"EPHEMERIS_TYPE":0,"CLASSIFICATION_TYPE":"U","NORAD_CAT_ID":33591,"ELEMENT_SET_NO":999,"REV_AT_EPOCH":69706,"BSTAR":9.5242e-5,"MEAN_MOTION_DOT":1.3e-6,"MEAN_MOTION_DDOT":0},{"OBJECT_NAME":"METOP-B","OBJECT_ID":"2012-049A","EPOCH":"2022-08-17T12:30:48.006144","MEAN_MOTION":14.21501806,"ECCENTRICITY":7.2e-5,"INCLINATION":98.6914,"RA_OF_ASC_NODE":288.3576,"ARG_OF_PERICENTER":134.2961,"MEAN_ANOMALY":333.2154,"EPHEMERIS_TYPE":0,"CLASSIFICATION_TYPE":"U","NORAD_CAT_ID":38771,"ELEMENT_SET_NO":999,"REV_AT_EPOCH":51440,"BSTAR":4.4074e-5,"MEAN_MOTION_DOT":5.3e-7,"MEAN_MOTION_DDOT":0},{"OBJECT_NAME":"SARAL","OBJECT_ID":"2013-009A","EPOCH":"2022-08-16T19:51:26.019936","MEAN_MOTION":14.32056984,"ECCENTRICITY":0.000233,"INCLINATION":98.549,"RA_OF_ASC_NODE":53.5713,"ARG_OF_PERICENTER":89.9961,"MEAN_ANOMALY":270.149,"EPHEMERIS_TYPE":0,"CLASSIFICATION_TYPE":"U","NORAD_CAT_ID":39086,"ELEMENT_SET_NO":999,"REV_AT_EPOCH":49512,"BSTAR":3.334e-5,"MEAN_MOTION_DOT":4.6e-7,"MEAN_MOTION_DDOT":0},{"OBJECT_NAME":"METOP-C","OBJECT_ID":"2018-087A","EPOCH":"2022-08-17T12:53:47.769216","MEAN_MOTION":14.21501809,"ECCENTRICITY":0.0002199,"INCLINATION":98.6796,"RA_OF_ASC_NODE":288.5171,"ARG_OF_PERICENTER":198.7605,"MEAN_ANOMALY":161.3492,"EPHEMERIS_TYPE":0,"CLASSIFICATION_TYPE":"U","NORAD_CAT_ID":43689,"ELEMENT_SET_NO":999,"REV_AT_EPOCH":19598,"BSTAR":4.5286e-5,"MEAN_MOTION_DOT":5.6e-7,"MEAN_MOTION_DDOT":0},{"OBJECT_NAME":"ANGELS","OBJECT_ID":"2019-092D","EPOCH":"2022-08-17T10:30:06.308928","MEAN_MOTION":15.18166901,"ECCENTRICITY":0.0012947,"INCLINATION":97.4765,"RA_OF_ASC_NODE":52.073,"ARG_OF_PERICENTER":140.0459,"MEAN_ANOMALY":220.173,"EPHEMERIS_TYPE":0,"CLASSIFICATION_TYPE":"U","NORAD_CAT_ID":44876,"ELEMENT_SET_NO":999,"REV_AT_EPOCH":14749,"BSTAR":0.0001146,"MEAN_MOTION_DOT":2.277e-5,"MEAN_MOTION_DDOT":0}]